CCSDS_OMM_VERS = 2.0
CREATION_DATE  = 
ORIGINATOR     = 

OBJECT_NAME    = FENGYUN 4C
OBJECT_ID      = 2025-312A
CENTER_NAME    = EARTH
REF_FRAME      = TEME
TIME_SYSTEM    = UTC
MEAN_ELEMENT_THEORY = SGP/SGP4

EPOCH          = 2026-01-24T12:41:18.217248
MEAN_MOTION    = 1.00272674
ECCENTRICITY   = .0001957
INCLINATION    = 0.0530
RA_OF_ASC_NODE = 241.3132
ARG_OF_PERICENTER = 51.5646
MEAN_ANOMALY   = 154.2407

EPHEMERIS_TYPE = 0
CLASSIFICATION_TYPE = U
NORAD_CAT_ID   = 67246
ELEMENT_SET_NO = 999
REV_AT_EPOCH   = 33
BSTAR          = 0
MEAN_MOTION_DOT = -.308E-5
MEAN_MOTION_DDOT = 0

CCSDS_OMM_VERS = 2.0
CREATION_DATE  = 
ORIGINATOR     = 

OBJECT_NAME    = CZ-3B R/B
OBJECT_ID      = 2025-312B
CENTER_NAME    = EARTH
REF_FRAME      = TEME
TIME_SYSTEM    = UTC
MEAN_ELEMENT_THEORY = SGP/SGP4

EPOCH          = 2026-01-23T11:02:25.794528
MEAN_MOTION    = 2.48195757
ECCENTRICITY   = .71757143
INCLINATION    = 28.3831
RA_OF_ASC_NODE = 323.1514
ARG_OF_PERICENTER = 197.1563
MEAN_ANOMALY   = 112.5228

EPHEMERIS_TYPE = 0
CLASSIFICATION_TYPE = U
NORAD_CAT_ID   = 67247
ELEMENT_SET_NO = 999
REV_AT_EPOCH   = 67
BSTAR          = .6658537E-3
MEAN_MOTION_DOT = .291215E-2
MEAN_MOTION_DDOT = .729511E-6

CCSDS_OMM_VERS = 2.0
CREATION_DATE  = 
ORIGINATOR     = 

OBJECT_NAME    = 2025-313A
OBJECT_ID      = 2025-313A
CENTER_NAME    = EARTH
REF_FRAME      = TEME
TIME_SYSTEM    = UTC
MEAN_ELEMENT_THEORY = SGP/SGP4

EPOCH          = 2026-01-24T11:39:57.286944
MEAN_MOTION    = 14.66840466
ECCENTRICITY   = .0280486
INCLINATION    = 97.5611
RA_OF_ASC_NODE = 99.9438
ARG_OF_PERICENTER = 78.4567
MEAN_ANOMALY   = 284.7984

EPHEMERIS_TYPE = 0
CLASSIFICATION_TYPE = U
NORAD_CAT_ID   = 67248
ELEMENT_SET_NO = 999
REV_AT_EPOCH   = 395
BSTAR          = .24246E-3
MEAN_MOTION_DOT = .2398E-4
MEAN_MOTION_DDOT = 0

CCSDS_OMM_VERS = 2.0
CREATION_DATE  = 
ORIGINATOR     = 

OBJECT_NAME    = 2025-313B
OBJECT_ID      = 2025-313B
CENTER_NAME    = EARTH
REF_FRAME      = TEME
TIME_SYSTEM    = UTC
MEAN_ELEMENT_THEORY = SGP/SGP4

EPOCH          = 2026-01-24T12:09:14.584320
MEAN_MOTION    = 14.73294668
ECCENTRICITY   = .0297528
INCLINATION    = 97.5298
RA_OF_ASC_NODE = 100.1027
ARG_OF_PERICENTER = 82.2520
MEAN_ANOMALY   = 281.2359

EPHEMERIS_TYPE = 0
CLASSIFICATION_TYPE = U
NORAD_CAT_ID   = 67249
ELEMENT_SET_NO = 999
REV_AT_EPOCH   = 397
BSTAR          = .4166E-3
MEAN_MOTION_DOT = .5454E-4
MEAN_MOTION_DDOT = 0

CCSDS_OMM_VERS = 2.0
CREATION_DATE  = 
ORIGINATOR     = 

OBJECT_NAME    = 2025-313C
OBJECT_ID      = 2025-313C
CENTER_NAME    = EARTH
REF_FRAME      = TEME
TIME_SYSTEM    = UTC
MEAN_ELEMENT_THEORY = SGP/SGP4

EPOCH          = 2026-01-24T12:04:18.456096
MEAN_MOTION    = 14.85113566
ECCENTRICITY   = .0161913
INCLINATION    = 97.6338
RA_OF_ASC_NODE = 100.9077
ARG_OF_PERICENTER = 91.8030
MEAN_ANOMALY   = 270.1737

EPHEMERIS_TYPE = 0
CLASSIFICATION_TYPE = U
NORAD_CAT_ID   = 67250
ELEMENT_SET_NO = 999
REV_AT_EPOCH   = 400
BSTAR          = .22641E-2
MEAN_MOTION_DOT = .24536E-3
MEAN_MOTION_DDOT = 0

CCSDS_OMM_VERS = 2.0
CREATION_DATE  = 
ORIGINATOR     = 

OBJECT_NAME    = 2025-313D
OBJECT_ID      = 2025-313D
CENTER_NAME    = EARTH
REF_FRAME      = TEME
TIME_SYSTEM    = UTC
MEAN_ELEMENT_THEORY = SGP/SGP4

EPOCH          = 2026-01-24T11:52:29.440416
MEAN_MOTION    = 14.88829091
ECCENTRICITY   = .0152383
INCLINATION    = 97.5855
RA_OF_ASC_NODE = 100.8858
ARG_OF_PERICENTER = 84.4120
MEAN_ANOMALY   = 277.4454

EPHEMERIS_TYPE = 0
CLASSIFICATION_TYPE = U
NORAD_CAT_ID   = 67251
ELEMENT_SET_NO = 999
REV_AT_EPOCH   = 401
BSTAR          = .43576E-3
MEAN_MOTION_DOT = .5015E-4
MEAN_MOTION_DDOT = 0

CCSDS_OMM_VERS = 2.0
CREATION_DATE  = 
ORIGINATOR     = 

OBJECT_NAME    = ZORKIY-2M-VPE
OBJECT_ID      = 2025-313E
CENTER_NAME    = EARTH
REF_FRAME      = TEME
TIME_SYSTEM    = UTC
MEAN_ELEMENT_THEORY = SGP/SGP4

EPOCH          = 2026-01-24T10:37:20.330688
MEAN_MOTION    = 15.21868619
ECCENTRICITY   = .0011616
INCLINATION    = 97.4090
RA_OF_ASC_NODE = 101.4987
ARG_OF_PERICENTER = 126.4576
MEAN_ANOMALY   = 233.7732

EPHEMERIS_TYPE = 0
CLASSIFICATION_TYPE = U
NORAD_CAT_ID   = 67252
ELEMENT_SET_NO = 999
REV_AT_EPOCH   = 409
BSTAR          = .581E-3
MEAN_MOTION_DOT = .13181E-3
MEAN_MOTION_DDOT = 0

CCSDS_OMM_VERS = 2.0
CREATION_DATE  = 
ORIGINATOR     = 

OBJECT_NAME    = AIST-2T 1
OBJECT_ID      = 2025-313F
CENTER_NAME    = EARTH
REF_FRAME      = TEME
TIME_SYSTEM    = UTC
MEAN_ELEMENT_THEORY = SGP/SGP4

EPOCH          = 2026-01-24T11:19:01.869888
MEAN_MOTION    = 15.66400292
ECCENTRICITY   = .0010575
INCLINATION    = 97.1006
RA_OF_ASC_NODE = 101.8841
ARG_OF_PERICENTER = 142.2405
MEAN_ANOMALY   = 217.9600

EPHEMERIS_TYPE = 0
CLASSIFICATION_TYPE = U
NORAD_CAT_ID   = 67253
ELEMENT_SET_NO = 999
REV_AT_EPOCH   = 419
BSTAR          = .73075E-3
MEAN_MOTION_DOT = .76408E-3
MEAN_MOTION_DDOT = 0

CCSDS_OMM_VERS = 2.0
CREATION_DATE  = 
ORIGINATOR     = 

OBJECT_NAME    = AIST-2T 2
OBJECT_ID      = 2025-313G
CENTER_NAME    = EARTH
REF_FRAME      = TEME
TIME_SYSTEM    = UTC
MEAN_ELEMENT_THEORY = SGP/SGP4

EPOCH          = 2026-01-23T20:06:08.329824
MEAN_MOTION    = 15.64510589
ECCENTRICITY   = .0005421
INCLINATION    = 97.0980
RA_OF_ASC_NODE = 101.2565
ARG_OF_PERICENTER = 167.9252
MEAN_ANOMALY   = 192.2139

EPHEMERIS_TYPE = 0
CLASSIFICATION_TYPE = U
NORAD_CAT_ID   = 67254
ELEMENT_SET_NO = 999
REV_AT_EPOCH   = 408
BSTAR          = .43333E-3
MEAN_MOTION_DOT = .41725E-3
MEAN_MOTION_DDOT = 0

CCSDS_OMM_VERS = 2.0
CREATION_DATE  = 
ORIGINATOR     = 

OBJECT_NAME    = 2025-313H
OBJECT_ID      = 2025-313H
CENTER_NAME    = EARTH
REF_FRAME      = TEME
TIME_SYSTEM    = UTC
MEAN_ELEMENT_THEORY = SGP/SGP4

EPOCH          = 2026-01-24T10:55:14.634336
MEAN_MOTION    = 15.02242478
ECCENTRICITY   = .0091515
INCLINATION    = 97.3065
RA_OF_ASC_NODE = 100.3974
ARG_OF_PERICENTER = 104.4044
MEAN_ANOMALY   = 256.7361

EPHEMERIS_TYPE = 0
CLASSIFICATION_TYPE = U
NORAD_CAT_ID   = 67255
ELEMENT_SET_NO = 999
REV_AT_EPOCH   = 404
BSTAR          = .28623E-3
MEAN_MOTION_DOT = .4073E-4
MEAN_MOTION_DDOT = 0

CCSDS_OMM_VERS = 2.0
CREATION_DATE  = 
ORIGINATOR     = 

OBJECT_NAME    = SITRO-AIS-57
OBJECT_ID      = 2025-313J
CENTER_NAME    = EARTH
REF_FRAME      = TEME
TIME_SYSTEM    = UTC
MEAN_ELEMENT_THEORY = SGP/SGP4

EPOCH          = 2026-01-24T11:22:13.827360
MEAN_MOTION    = 15.20165707
ECCENTRICITY   = .001751
INCLINATION    = 97.4083
RA_OF_ASC_NODE = 101.4517
ARG_OF_PERICENTER = 143.3621
MEAN_ANOMALY   = 216.8815

EPHEMERIS_TYPE = 0
CLASSIFICATION_TYPE = U
NORAD_CAT_ID   = 67256
ELEMENT_SET_NO = 999
REV_AT_EPOCH   = 409
BSTAR          = .80497E-3
MEAN_MOTION_DOT = .1745E-3
MEAN_MOTION_DDOT = 0

CCSDS_OMM_VERS = 2.0
CREATION_DATE  = 
ORIGINATOR     = 

OBJECT_NAME    = SITRO-AIS-59
OBJECT_ID      = 2025-313K
CENTER_NAME    = EARTH
REF_FRAME      = TEME
TIME_SYSTEM    = UTC
MEAN_ELEMENT_THEORY = SGP/SGP4

EPOCH          = 2026-01-24T11:21:27.917856
MEAN_MOTION    = 15.20176126
ECCENTRICITY   = .0017273
INCLINATION    = 97.4089
RA_OF_ASC_NODE = 101.4546
ARG_OF_PERICENTER = 145.3552
MEAN_ANOMALY   = 214.8812

EPHEMERIS_TYPE = 0
CLASSIFICATION_TYPE = U
NORAD_CAT_ID   = 67257
ELEMENT_SET_NO = 999
REV_AT_EPOCH   = 409
BSTAR          = .82036E-3
MEAN_MOTION_DOT = .1779E-3
MEAN_MOTION_DDOT = 0

