FENGYUN 4C              
1 67246U 25312A   26024.52868307 -.00000308  00000+0  00000+0 0  9991
2 67246   0.0530 241.3132 0001957  51.5646 154.2407  1.00272674   338
CZ-3B R/B               
1 67247U 25312B   26023.46002077  .00291215  72951-6  66585-3 0  9991
2 67247  28.3831 323.1514 7175714 197.1563 112.5228  2.48195757   678
2025-313A               
1 67248U 25313A   26024.48607971  .00002398  00000+0  24246-3 0  9999
2 67248  97.5611  99.9438 0280486  78.4567 284.7984 14.66840466  3959
2025-313B               
1 67249U 25313B   26024.50641880  .00005454  00000+0  41660-3 0  9995
2 67249  97.5298 100.1027 0297528  82.2520 281.2359 14.73294668  3972
2025-313C               
1 67250U 25313C   26024.50299139  .00024536  00000+0  22641-2 0  9992
2 67250  97.6338 100.9077 0161913  91.8030 270.1737 14.85113566  4005
2025-313D               
1 67251U 25313D   26024.49478519  .00005015  00000+0  43576-3 0  9994
2 67251  97.5855 100.8858 0152383  84.4120 277.4454 14.88829091  4011
ZORKIY-2M-VPE           
1 67252U 25313E   26024.44259642  .00013181  00000+0  58100-3 0  9996
2 67252  97.4090 101.4987 0011616 126.4576 233.7732 15.21868619  4096
AIST-2T 1               
1 67253U 25313F   26024.47154942  .00076408  00000+0  73075-3 0  9996
2 67253  97.1006 101.8841 0010575 142.2405 217.9600 15.66400292  4191
AIST-2T 2               
1 67254U 25313G   26023.83759641  .00041725  00000+0  43333-3 0  9991
2 67254  97.0980 101.2565 0005421 167.9252 192.2139 15.64510589  4086
2025-313H               
1 67255U 25313H   26024.45503049  .00004073  00000+0  28623-3 0  9990
2 67255  97.3065 100.3974 0091515 104.4044 256.7361 15.02242478  4042
SITRO-AIS-57            
1 67256U 25313J   26024.47377115  .00017450  00000+0  80497-3 0  9996
2 67256  97.4083 101.4517 0017510 143.3621 216.8815 15.20165707  4090
SITRO-AIS-59            
1 67257U 25313K   26024.47323979  .00017790  00000+0  82036-3 0  9994
2 67257  97.4089 101.4546 0017273 145.3552 214.8812 15.20176126  4092
